GORIZONT 25             
1 21922U 92017A   09189.02900297 -.00000274  00000-0  10000-3 0  2183
2 21922  11.5416  42.1637 0027455 300.3286  59.4263  0.99846165 63156
GORIZONT 26             
1 22041U 92043A   09188.27164360 -.00000046  00000-0  10000-3 0  8547
2 22041  11.4005  43.5474 0029494 102.8625 257.4855  0.99244210 62073
GORIZONT 27             
1 22245U 92082A   09189.92172719 -.00000254  00000-0  10000-3 0  4633
2 22245  11.3131  44.6509 0013476 227.0937 132.8232  1.00216539 65162
GORIZONT 28             
1 22880U 93069A   09190.66769936 -.00000338  00000-0  10000-3 0  2024
2 22880  10.8371  47.9696 0032736 359.0140 249.8328  0.99655044 57488
GORIZONT 29             
1 22907U 93072A   09187.97139796 -.00000341  00000-0  10000-3 0  6773
2 22907  10.8099  48.0833 0011056 205.4612 154.4884  1.00153407 57229
GORIZONT 30             
1 23108U 94030A   09189.39203917 -.00000149  00000-0  10000-3 0  5019
2 23108  10.6587  49.3850 0001710 134.1171 225.9199  1.00286536 55445
GORIZONT 31             
1 23775U 96005A   09189.38653596 -.00000151  00000-0  10000-3 0  8469
2 23775   9.6162  55.1447 0021965  69.1045 291.0982  0.99899804 49240
GORIZONT 32             
1 23880U 96034A   09190.90586355 -.00000116  00000-0  10000-3 0  2461
2 23880   9.4846  56.2192 0001481  22.1192 161.7253  1.00268838 48069
GORIZONT 33             
1 26372U 00029A   09187.36282657  .00000054  00000-0  10000-3 0  6366
2 26372   6.7268  65.3146 0002232 338.5077  21.3820  1.00224192 33360
